start=new Date('2023-06-29T00:00:00.000Z').valueOf();
sats=[{"BSTAR":"0.00007832100000","MEAN_MOTION":"14.98330798","EPHEMERIS_TYPE":"0","TIME_SYSTEM":"UTC","NORAD_CAT_ID":"49133","FILE":"3945238","RCS_SIZE":"LARGE","PERIAPSIS":"569.642","APOAPSIS":"574.469","TLE_LINE1":"1 49133U 21082D   23179.61218400  .00000842  00000-0  78321-4 0  9996","ARG_OF_PERICENTER":"269.2655","CENTER_NAME":"EARTH","TLE_LINE2":"2 49133  69.9992 258.1839 0003473 269.2655  90.8106 14.98330798 98423","ECCENTRICITY":"0.00034730","REV_AT_EPOCH":"9842","LAUNCH_DATE":"2021-09-14","ELEMENT_SET_NO":"999","MEAN_MOTION_DDOT":"0.0000000000000","OBJECT_ID":"2021-082D","MEAN_ANOMALY":"90.8106","GP_ID":"234612625","SITE":"AFWTR","REF_FRAME":"TEME","MEAN_ELEMENT_THEORY":"SGP4","RA_OF_ASC_NODE":"258.1839","DECAY_DATE":null,"OBJECT_NAME":"STARLINK-3077","MEAN_MOTION_DOT":"0.00000842","INCLINATION":"69.9992","EPOCH":"2023-06-28T14:41:32.697600","COUNTRY_CODE":"US","OBJECT_TYPE":"PAYLOAD","PERIOD":"96.107","SEMIMAJOR_AXIS":"6950.190","CLASSIFICATION_TYPE":"U"},{"ELEMENT_SET_NO":"999","LAUNCH_DATE":"2021-09-14","REV_AT_EPOCH":"9959","TLE_LINE2":"2 49134  69.9994 258.7043 0003428 266.2452  93.8315 14.98326917 99593","ECCENTRICITY":"0.00034280","CENTER_NAME":"EARTH","TLE_LINE1":"1 49134U 21082E   23179.40773446  .00000453  00000-0  45732-4 0  9998","ARG_OF_PERICENTER":"266.2452","APOAPSIS":"574.450","PERIAPSIS":"569.685","RCS_SIZE":"LARGE","FILE":"3945009","NORAD_CAT_ID":"49134","TIME_SYSTEM":"UTC","EPHEMERIS_TYPE":"0","MEAN_MOTION":"14.98326917","BSTAR":"0.00004573200000","CLASSIFICATION_TYPE":"U","SEMIMAJOR_AXIS":"6950.202","PERIOD":"96.107","OBJECT_TYPE":"PAYLOAD","COUNTRY_CODE":"US","EPOCH":"2023-06-28T09:47:08.257344","MEAN_MOTION_DOT":"0.00000453","OBJECT_NAME":"STARLINK-3078","INCLINATION":"69.9994","DECAY_DATE":null,"RA_OF_ASC_NODE":"258.7043","MEAN_ELEMENT_THEORY":"SGP4","REF_FRAME":"TEME","SITE":"AFWTR","GP_ID":"234607194","MEAN_ANOMALY":"93.8315","MEAN_MOTION_DDOT":"0.0000000000000","OBJECT_ID":"2021-082E"},{"TIME_SYSTEM":"UTC","EPHEMERIS_TYPE":"0","NORAD_CAT_ID":"49135","BSTAR":"0.00001236200000","MEAN_MOTION":"14.98330735","PERIAPSIS":"569.269","FILE":"3944542","RCS_SIZE":"LARGE","APOAPSIS":"574.842","ARG_OF_PERICENTER":"268.7450","TLE_LINE1":"1 49135U 21082F   23178.84397806  .00000054  00000-0  12362-4 0  9998","CENTER_NAME":"EARTH","REV_AT_EPOCH":"9930","LAUNCH_DATE":"2021-09-14","ELEMENT_SET_NO":"999","TLE_LINE2":"2 49135  69.9984 220.1037 0004009 268.7450  91.3250 14.98330735 99303","ECCENTRICITY":"0.00040090","OBJECT_ID":"2021-082F","MEAN_MOTION_DDOT":"0.0000000000000","MEAN_ANOMALY":"91.3250","GP_ID":"234595364","SITE":"AFWTR","DECAY_DATE":null,"REF_FRAME":"TEME","MEAN_ELEMENT_THEORY":"SGP4","RA_OF_ASC_NODE":"220.1037","EPOCH":"2023-06-27T20:15:19.704384","COUNTRY_CODE":"US","MEAN_MOTION_DOT":"0.00000054","INCLINATION":"69.9984","OBJECT_NAME":"STARLINK-3073","CLASSIFICATION_TYPE":"U","OBJECT_TYPE":"PAYLOAD","PERIOD":"96.107","SEMIMAJOR_AXIS":"6950.191"},{"TLE_LINE2":"2 49136  69.9986 238.6091 0004140 267.6911  92.3774 14.98329380 98907","ECCENTRICITY":"0.00041400","REV_AT_EPOCH":"9890","ELEMENT_SET_NO":"999","LAUNCH_DATE":"2021-09-14","APOAPSIS":"574.937","ARG_OF_PERICENTER":"267.6911","TLE_LINE1":"1 49136U 21082G   23179.44087944  .00001006  00000-0  92140-4 0  9995","CENTER_NAME":"EARTH","FILE":"3945009","RCS_SIZE":"LARGE","PERIAPSIS":"569.182","BSTAR":"0.00009214000000","MEAN_MOTION":"14.98329380","EPHEMERIS_TYPE":"0","TIME_SYSTEM":"UTC","NORAD_CAT_ID":"49136","OBJECT_TYPE":"PAYLOAD","PERIOD":"96.107","SEMIMAJOR_AXIS":"6950.195","CLASSIFICATION_TYPE":"U","OBJECT_NAME":"STARLINK-3084","MEAN_MOTION_DOT":"0.00001006","INCLINATION":"69.9986","EPOCH":"2023-06-28T10:34:51.983616","COUNTRY_CODE":"US","REF_FRAME":"TEME","MEAN_ELEMENT_THEORY":"SGP4","RA_OF_ASC_NODE":"238.6091","DECAY_DATE":null,"OBJECT_ID":"2021-082G","MEAN_MOTION_DDOT":"0.0000000000000","MEAN_ANOMALY":"92.3774","GP_ID":"234607183","SITE":"AFWTR"},{"NORAD_CAT_ID":"49137","EPHEMERIS_TYPE":"0","TIME_SYSTEM":"UTC","MEAN_MOTION":"14.98329375","BSTAR":"0.00009550300000","PERIAPSIS":"569.383","FILE":"3945009","RCS_SIZE":"LARGE","CENTER_NAME":"EARTH","TLE_LINE1":"1 49137U 21082H   23179.43670802  .00001047  00000-0  95503-4 0  9997","ARG_OF_PERICENTER":"269.1512","APOAPSIS":"574.736","LAUNCH_DATE":"2021-09-14","ELEMENT_SET_NO":"999","REV_AT_EPOCH":"9889","TLE_LINE2":"2 49137  69.9984 238.6245 0003851 269.1512  90.9205 14.98329375 98894","ECCENTRICITY":"0.00038510","SITE":"AFWTR","GP_ID":"234607188","MEAN_ANOMALY":"90.9205","MEAN_MOTION_DDOT":"0.0000000000000","OBJECT_ID":"2021-082H","DECAY_DATE":null,"RA_OF_ASC_NODE":"238.6245","MEAN_ELEMENT_THEORY":"SGP4","REF_FRAME":"TEME","COUNTRY_CODE":"US","EPOCH":"2023-06-28T10:28:51.572928","OBJECT_NAME":"STARLINK-3055","MEAN_MOTION_DOT":"0.00001047","INCLINATION":"69.9984","CLASSIFICATION_TYPE":"U","SEMIMAJOR_AXIS":"6950.195","PERIOD":"96.107","OBJECT_TYPE":"PAYLOAD"},{"CENTER_NAME":"EARTH","TLE_LINE1":"1 49138U 21082J   23179.20329995 -.00002645  00000-0 -21407-3 0  9995","ARG_OF_PERICENTER":"265.3139","APOAPSIS":"574.269","ELEMENT_SET_NO":"999","LAUNCH_DATE":"2021-09-14","REV_AT_EPOCH":"9836","ECCENTRICITY":"0.00031080","TLE_LINE2":"2 49138  69.9998 259.2236 0003108 265.3139  94.7665 14.98313515 98360","NORAD_CAT_ID":"49138","TIME_SYSTEM":"UTC","EPHEMERIS_TYPE":"0","MEAN_MOTION":"14.98313515","BSTAR":"-0.00021407000000","PERIAPSIS":"569.949","RCS_SIZE":"LARGE","FILE":"3944786","COUNTRY_CODE":"US","EPOCH":"2023-06-28T04:52:45.115680","MEAN_MOTION_DOT":"-0.00002645","OBJECT_NAME":"STARLINK-3058","INCLINATION":"69.9998","CLASSIFICATION_TYPE":"U","SEMIMAJOR_AXIS":"6950.244","PERIOD":"96.108","OBJECT_TYPE":"PAYLOAD","SITE":"AFWTR","GP_ID":"234601353","MEAN_ANOMALY":"94.7665","OBJECT_ID":"2021-082J","MEAN_MOTION_DDOT":"0.0000000000000","DECAY_DATE":null,"RA_OF_ASC_NODE":"259.2236","MEAN_ELEMENT_THEORY":"SGP4","REF_FRAME":"TEME"},{"PERIAPSIS":"569.640","FILE":"3945009","RCS_SIZE":"LARGE","NORAD_CAT_ID":"49139","TIME_SYSTEM":"UTC","EPHEMERIS_TYPE":"0","MEAN_MOTION":"14.98329858","BSTAR":"0.00002472400000","ELEMENT_SET_NO":"999","LAUNCH_DATE":"2021-09-14","REV_AT_EPOCH":"9938","TLE_LINE2":"2 49139  69.9988 218.6160 0003479 268.7610  91.3151 14.98329858 99380","ECCENTRICITY":"0.00034790","CENTER_NAME":"EARTH","APOAPSIS":"574.476","TLE_LINE1":"1 49139U 21082K   23179.43647498  .00000202  00000-0  24724-4 0  9993","ARG_OF_PERICENTER":"268.7610","DECAY_DATE":null,"MEAN_ELEMENT_THEORY":"SGP4","RA_OF_ASC_NODE":"218.6160","REF_FRAME":"TEME","GP_ID":"234607193","SITE":"AFWTR","MEAN_MOTION_DDOT":"0.0000000000000","OBJECT_ID":"2021-082K","MEAN_ANOMALY":"91.3151","CLASSIFICATION_TYPE":"U","OBJECT_TYPE":"PAYLOAD","SEMIMAJOR_AXIS":"6950.193","PERIOD":"96.107","COUNTRY_CODE":"US","EPOCH":"2023-06-28T10:28:31.438272","MEAN_MOTION_DOT":"0.00000202","INCLINATION":"69.9988","OBJECT_NAME":"STARLINK-3057"},{"PERIAPSIS":"569.512","FILE":"3944786","RCS_SIZE":"LARGE","EPHEMERIS_TYPE":"0","TIME_SYSTEM":"UTC","NORAD_CAT_ID":"49140","BSTAR":"0.00008115600000","MEAN_MOTION":"14.98329267","REV_AT_EPOCH":"9934","ELEMENT_SET_NO":"999","LAUNCH_DATE":"2021-09-14","ECCENTRICITY":"0.00036660","TLE_LINE2":"2 49140  69.9985 219.3176 0003666 266.7107  93.3633 14.98329267 99348","APOAPSIS":"574.608","ARG_OF_PERICENTER":"266.7107","TLE_LINE1":"1 49140U 21082L   23179.16109107  .00000875  00000-0  81156-4 0  9993","CENTER_NAME":"EARTH","DECAY_DATE":null,"REF_FRAME":"TEME","MEAN_ELEMENT_THEORY":"SGP4","RA_OF_ASC_NODE":"219.3176","OBJECT_ID":"2021-082L","MEAN_MOTION_DDOT":"0.0000000000000","MEAN_ANOMALY":"93.3633","GP_ID":"234601352","SITE":"AFWTR","CLASSIFICATION_TYPE":"U","OBJECT_TYPE":"PAYLOAD","PERIOD":"96.107","SEMIMAJOR_AXIS":"6950.195","EPOCH":"2023-06-28T03:51:58.268448","COUNTRY_CODE":"US","MEAN_MOTION_DOT":"0.00000875","OBJECT_NAME":"STARLINK-3118","INCLINATION":"69.9985"},{"CENTER_NAME":"EARTH","ARG_OF_PERICENTER":"270.4718","TLE_LINE1":"1 49141U 21082M   23179.19911267  .00000843  00000-0  78478-4 0  9993","APOAPSIS":"574.552","LAUNCH_DATE":"2021-09-14","ELEMENT_SET_NO":"999","REV_AT_EPOCH":"9956","TLE_LINE2":"2 49141  69.9994 259.2375 0003591 270.4718  89.6030 14.98330534 99562","ECCENTRICITY":"0.00035910","NORAD_CAT_ID":"49141","EPHEMERIS_TYPE":"0","TIME_SYSTEM":"UTC","MEAN_MOTION":"14.98330534","BSTAR":"0.00007847800000","PERIAPSIS":"569.560","RCS_SIZE":"LARGE","FILE":"3944786","COUNTRY_CODE":"US","EPOCH":"2023-06-28T04:46:43.334688","MEAN_MOTION_DOT":"0.00000843","OBJECT_NAME":"STARLINK-3093","INCLINATION":"69.9994","CLASSIFICATION_TYPE":"U","PERIOD":"96.107","SEMIMAJOR_AXIS":"6950.191","OBJECT_TYPE":"PAYLOAD","SITE":"AFWTR","GP_ID":"234601344","MEAN_ANOMALY":"89.6030","MEAN_MOTION_DDOT":"0.0000000000000","OBJECT_ID":"2021-082M","DECAY_DATE":null,"RA_OF_ASC_NODE":"259.2375","MEAN_ELEMENT_THEORY":"SGP4","REF_FRAME":"TEME"},{"EPOCH":"2023-06-28T14:58:54.094080","COUNTRY_CODE":"US","INCLINATION":"69.9983","MEAN_MOTION_DOT":"0.00000664","OBJECT_NAME":"STARLINK-3042","CLASSIFICATION_TYPE":"U","OBJECT_TYPE":"PAYLOAD","SEMIMAJOR_AXIS":"6950.189","PERIOD":"96.107","OBJECT_ID":"2021-082N","MEAN_MOTION_DDOT":"0.0000000000000","MEAN_ANOMALY":"92.2356","GP_ID":"234612635","SITE":"AFWTR","DECAY_DATE":null,"REF_FRAME":"TEME","MEAN_ELEMENT_THEORY":"SGP4","RA_OF_ASC_NODE":"218.1546","APOAPSIS":"574.472","TLE_LINE1":"1 49142U 21082N   23179.62423720  .00000664  00000-0  63450-4 0  9999","ARG_OF_PERICENTER":"267.8404","CENTER_NAME":"EARTH","REV_AT_EPOCH":"9941","LAUNCH_DATE":"2021-09-14","ELEMENT_SET_NO":"999","ECCENTRICITY":"0.00034800","TLE_LINE2":"2 49142  69.9983 218.1546 0003480 267.8404  92.2356 14.98331322 99415","EPHEMERIS_TYPE":"0","TIME_SYSTEM":"UTC","NORAD_CAT_ID":"49142","BSTAR":"0.00006345000000","MEAN_MOTION":"14.98331322","PERIAPSIS":"569.635","RCS_SIZE":"LARGE","FILE":"3945239"}];
